#dP2023 12  6  6  0  0.00000000      96 __u+U IGS20 EXT  IAC
## 2291 280800.00000000   900.00000000 60284 0.2500000000000
+  117   C06C07C08C09C11C12C13C14C16C19C20C21C22C23C24C25C26
+        C27C28C29C30C32C33C34C35C36C37C38C40C41C42C43C44C45
+        C46E02E03E04E05E07E08E09E10E11E12E13E15E18E19E21E24
+        E25E26E27E30E31E33E34E36G01G02G03G04G05G06G07G08G09
+        G10G11G12G13G14G15G16G17G18G19G20G21G22G23G24G25G26
+        G27G28G29G30G31G32J02J03J04R01R02R03R04R05R07R08R09
+        R11R12R13R14R15R16R17R18R19R20R21R22R24R25R26  0  0
++        11 11 10  9  8  9  9  8  9  9  9  9  9  9  7  9  9
++         7  8  7  7  9  7  7  9  9  8  9  9  9  8  8  8  9
++         8  7  7  8  8  7  7  7  7  8  7  8  8  9  9  8  8
++         8  7  9  8  7  7  8  8  8  8  8  7  7  8  7  7  7
++         8  7  8  7  8  7  7  7  8  7  7  7  8  8  9  7  8
++         7  7  7  7  8  7 10  8  8  7  7 10  9  8  8  7  7
++         7  9  8  8  8  7  8  7  8  9  7  8  7 10  8  0  0
%c M  cc GPS ccc cccc cccc cccc cccc ccccc ccccc ccccc ccccc
%c cc cc ccc ccc cccc cccc cccc cccc ccccc ccccc ccccc ccccc
%f  0.0000000  0.000000000  0.00000000000  0.000000000000000
%f  0.0000000  0.000000000  0.00000000000  0.000000000000000
%i    0    0    0    0      0      0      0      0         0
%i    0    0    0    0      0      0      0      0         0
/* IAC                                ULTRA-RAPID PREDICTION
/* S/V CLOCKS ARE ALIGNED TO GNSS TIME                      
/* G:C1WC2W R:C1PC2P E:C1XC5X C:C2IC6I J:C1CC2S             
/* PCV:IGS20_2287 OL/AL:FES2004  NONE     YN ORB:CoN CLK:CoN
*  2023 12 06 17  0  0.00000000
PC06  -7070.412425  23665.948982 -34130.012951     57.277375
PC07 -16293.021224  35962.657063  14637.179893   -432.414621
PC08  -1765.466216  38789.473380  16710.162150    197.230339
PC09   4435.604076  26720.374320 -31750.147948   -182.695287
PC11  15486.418010  13949.334567  18641.348601    292.773755
PC12  -5803.613628  14837.569116  22957.284456    834.547985
PC13   2105.646679  40695.371685  11560.428991    392.286730
PC14   5680.363206  17379.955201 -21057.244207   -302.774605
PC16  -9494.762319  22090.086831 -34406.903858   -212.338268
PC19 -12805.112171  -8994.792506  23124.553952   -956.723641
PC20   1074.402005 -22229.258783  16855.689730     52.932220
PC21 -15594.848096  23130.387047    241.716115   -968.750942
PC22 -20129.511339  10165.952987  16419.194990   -197.013923
PC23  18075.081538   2030.856146  21163.469904   -808.345096
PC24   6641.276620  25988.075450  -7776.386134    666.690784
PC25  18067.898935  18748.373769  10058.028017    271.998485
PC26  -7051.038740  17900.410974 -20247.055477   -216.445594
PC27  15142.385736 -12715.207384 -19703.338282    238.384090
PC28  26763.053397  -3154.655477  -7245.456803    180.225669
PC29 -23520.985260  -9131.434220 -11923.339181    210.960317
PC30  -5080.226096 -15883.145572 -22381.076475     -9.841895
PC32  15462.891367 -23231.857494   -332.075057   -540.363557
PC33  12820.098154   9011.329349 -23091.856994   -942.329029
PC34   6747.797158  15751.816585  22013.848493    319.081119
PC35 -26627.670570   4213.682739   7273.337331    486.727995
PC36 -17350.111450 -19745.435382  -9336.087400   -104.058084
PC37   7954.221210 -17155.821117  20516.517661   -913.862921
PC38  -7033.265722  34856.775366  22842.967185    122.316654
PC40 -23918.834107  31647.947408  13941.776553    -46.819814
PC41  20027.239829  -9530.946424 -16889.683986   -872.623646
PC42  -2320.341367  22915.179337 -15703.748238   -485.696820
PC43  22902.666816   9713.091383  12618.572681     51.199126
PC44 -14884.298084  13318.111776  19492.241163    314.705529
PC45 -17809.002347  -1501.213015 -21433.468411    -52.641757
PC46  -7423.563125 -26005.007000   6776.655810   -105.427656
PE02  12496.784836  16731.131328  20981.681722     84.414125
PE03  19723.825184   7338.785783 -20827.574200    -78.316332
PE04 -27981.913339   7664.322622   5880.033604   -273.972832
PE05     91.823844  17944.168677 -23544.527096   4697.904872
PE07  20094.451482 -18017.256970  12159.534550    -91.629470
PE08  27953.974388  -7292.187545  -6469.756525   -188.083331
PE09 -20199.114989  17930.452925 -12105.942023   -253.421258
PE10 -18088.156143   4936.279409  22903.444025   -584.329151
PE11  -9030.333931  13309.724291  24846.615974   3253.057938
PE12 -23534.479405  -3262.890669  17666.599745   -807.447472
PE13   9648.201447 -12754.796204 -24897.185436    -19.649525
PE15  23705.526755   3724.374578 -17316.952416    -73.311634
PE18  11478.174791  12981.296175  19022.623862     64.259599
PE19 -17654.246592  -8989.804320  21995.062998  -1069.117440
PE21  -1313.025052 -28768.811587  -6824.764845   -567.578208
PE24 -11578.157532  24301.805498 -12358.760027   -471.223540
PE25   1052.407983  28873.184688   6466.682400     -2.361750
PE26 -10375.349808 -21698.812710 -17238.114280    301.911198
PE27  11218.759182 -24632.512208  11963.259677   -217.600569
PE30  17064.992323  -5598.567878  23514.510383   -720.355542
PE31 -16987.771295   6051.642643 -23469.892099    -11.241244
PE33 -23435.467932 -18052.964277   -851.718892      3.705380
PE34  23706.820558  17733.425783    282.642571    -81.895741
PE36   9810.999347  21515.115267  17812.005298   -154.005133
PG01 -22143.739442 -14621.007026   3016.430539    163.639534
PG02 -21335.654991 -15635.465668  -2958.414510   -519.252418
PG03 -12106.749836 -12203.486505  20132.027095     35.480544
PG04 -20794.358737  -3873.167087  16150.977379    232.384617
PG05   6845.950030  22644.508148 -12161.779525   -153.112754
PG06  -4455.904499  14598.271862  21796.024913    485.907201
PG07 -21034.236443  -1416.425218 -15956.841931     -5.112695
PG08 -14306.122838  -9296.428604 -20538.620903   -155.651109
PG09 -24901.799200   6124.906578   6948.101369     18.641557
PG10  10771.534057 -20475.384439 -12545.646456    -64.252098
PG11   6484.178771  19939.104942  16357.907234   -490.041644
PG12  11175.532935  13838.241687  19469.696975   -454.646156
PG13   3194.109210  14774.905795 -22036.535432    602.879660
PG14 -13348.255550  17271.118861 -14986.946855    263.445053
PG15  15150.241188   8537.239426 -20614.169128    104.272302
PG16   -268.904030 -25276.035923  -7660.145128   -409.132757
PG17 -21882.893202  13415.917452   7528.054003    722.381704
PG18  19769.366051    -37.698868 -17811.520779   -499.116565
PG19 -15566.718056  15368.809841  14621.717084    408.801230
PG20    852.026822  26629.552964    996.154571    397.992977
PG21 -19781.825291 -17186.383076  -6214.868761    142.302536
PG22 -10611.727003  22918.514654  -8237.416798     70.832441
PG23  14559.118145  -8656.186978 -20393.194031    111.322714
PG24  21235.576690  16009.266816  -3618.296666   -387.573869
PG25  15273.872267    348.140925  21389.368377    480.409263
PG26   3184.384577 -25992.434330   2901.730577    211.346588
PG27    163.638372 -16170.005964 -21253.999406    -79.567717
PG28   6559.015795 -13856.672988  21663.100136    -63.292472
PG29  25287.404850  -3334.268284   7549.873829   -609.954199
PG30 -14064.590357   8595.191225 -20748.316784   -460.449523
PG31  -1365.959024 -18125.258907  19015.790521   -226.381027
PG32  18533.295187 -16034.660899  10155.865849   -593.626829
PJ02 -23345.605038  30925.568899 -11861.635580     -0.441417
PJ03 -27104.392859  23105.077569  27775.718054    -10.902181
PJ04 -31946.279391  27469.896926   8307.012380     73.643314
PR01   6813.980789   8758.930894 -22970.164490     71.509289
PR02  17545.233427  -6281.668189 -17339.310082    -22.316993
PR03  18215.451818 -17723.561449  -1675.742465     90.407080
PR04   9123.885833 -18891.099011  14519.821793    214.090501
PR05  -5008.886720 -10040.387972  22912.032128    123.381804
PR07 -18066.081983  18029.847134    928.534892     70.741622
PR08  -8872.978477  18974.990137 -14530.604853    -73.555425
PR09 -12846.232316  -5407.825645 -21366.033038    157.238698
PR11   2134.544338  23390.410205  -9925.819997   -218.872792
PR12  10865.107760  21128.242245   9329.543645     34.182382
PR13  12772.825136   7941.524320  20585.515198    -42.041459
PR14   6844.793673 -12705.538608  21044.065786     25.706572
PR15  -2668.685581 -23870.871013   8605.202312     84.190579
PR16 -10832.601434 -21270.181664  -9033.635054     21.300618
PR17  16306.519342  -4790.084473 -19022.908475     41.190565
PR18   -405.151985 -10871.653896 -23052.262458    115.536068
PR19 -15209.360465 -12203.400728 -16433.006020   -257.311338
PR20 -24617.702518  -5846.540282   3403.510202   -104.717985
PR21 -15761.309590   4927.506797  19437.584144    -58.929930
PR22    995.609491  11523.235961  22765.633540     96.991935
PR24  24803.687692   4538.099876  -3892.643764    -34.903733
PR25 -16472.847837   4397.448024  18974.473745     -1.487456
PR26  -9209.442004  19174.901078 -14047.379135    -13.488726
EOF
